NORAD_CAT_ID,OBJECT_NAME,OBJECT_TYPE,EPOCH,MEAN_MOTION,ECCENTRICITY,INCLINATION,RA_OF_ASC_NODE,ARG_OF_PERICENTER,MEAN_ANOMALY,BSTAR,MEAN_MOTION_DOT,MEAN_MOTION_DDOT,TLE_LINE0,TLE_LINE1,TLE_LINE2,SEMIMAJOR_AXIS,PERIOD,APOGEE,PERIGEE,DECAYED
52849.0,STARLINK-4197,PAYLOAD,2024-01-10 04:35:41,15.08849322,0.0001522,53.2188,328.3132,86.9228,273.1938,6.0361e-05,6.73e-06,0.0,0 STARLINK-4197,1 52849U 22062V   24010.19144878  .00000673  00000-0  60361-4 0  9995,2 52849  53.2188 328.3132 0001522  86.9228 273.1938 15.08849322 87228,6917.852,95.437,540.77,538.664,0.0
52849.0,STARLINK-4197,PAYLOAD,2024-01-11 02:51:05,15.08836012,0.0001641,53.2197,324.1573,70.8698,289.2472,9.2291e-05,1.181e-05,0.0,0 STARLINK-4197,1 52849U 22062V   24011.11881859  .00001181  00000-0  92291-4 0  9997,2 52849  53.2197 324.1573 0001641  70.8698 289.2472 15.08836012 87364,6917.893,95.438,540.893,538.622,0.0
52849.0,STARLINK-4197,PAYLOAD,2024-01-11 06:01:51,15.08846488,0.0001448,53.2192,323.5558,85.4914,274.6244,0.00010948,1.455e-05,0.0,0 STARLINK-4197,1 52849U 22062V   24011.25128962  .00001455  00000-0  10948-3 0  9993,2 52849  53.2192 323.5558 0001448  85.4914 274.6244 15.08846488 87388,6917.861,95.437,540.727,538.724,0.0
52849.0,STARLINK-4197,PAYLOAD,2024-01-11 20:20:20,15.0883332,0.0001721,53.2209,320.8818,69.7518,290.3659,-8.9821e-06,-4.31e-06,0.0,0 STARLINK-4197,1 52849U 22062V   24011.84746436 -.00000431  00000-0 -89821-5 0  9993,2 52849  53.2209 320.8818 0001721  69.7518 290.3659 15.08833320 87471,6917.901,95.438,540.956,538.575,0.0
52849.0,STARLINK-4197,PAYLOAD,2024-01-12 02:41:52,15.08842855,0.0001677,53.2193,319.6944,97.0113,263.107,-2.5961e-05,-7.01e-06,0.0,0 STARLINK-4197,1 52849U 22062V   24012.11241678 -.00000701  00000-0 -25961-4 0  9996,2 52849  53.2193 319.6944 0001677  97.0113 263.1070 15.08842855 87517,6917.872,95.437,540.897,538.577,0.0
52849.0,STARLINK-4197,PAYLOAD,2024-01-12 20:11:07,15.08842969,0.000158,53.2194,316.4246,100.423,259.6941,2.064e-05,4.1e-07,0.0,0 STARLINK-4197,1 52849U 22062V   24012.84105779  .00000041  00000-0  20640-4 0  9991,2 52849  53.2194 316.4246 0001580 100.4230 259.6941 15.08842969 87131,6917.871,95.437,540.829,538.643,0.0
52849.0,STARLINK-4197,PAYLOAD,2024-01-13 05:43:25,15.08850964,0.0001409,53.219,314.636,106.5952,253.5195,8.1386e-05,1.008e-05,0.0,0 STARLINK-4197,1 52849U 22062V   24013.23848943  .00001008  00000-0  81386-4 0  9990,2 52849  53.2190 314.6360 0001409 106.5952 253.5195 15.08850964 87680,6917.847,95.437,540.687,538.737,0.0
52849.0,STARLINK-4197,PAYLOAD,2024-01-13 20:01:54,15.08842256,0.0001465,53.219,311.9535,131.4225,228.6893,-5.7208e-05,-1.198e-05,0.0,0 STARLINK-4197,1 52849U 22062V   24013.83466036 -.00001198  00000-0 -57208-4 0  9993,2 52849  53.2190 311.9535 0001465 131.4225 228.6893 15.08842256 87779,6917.873,95.437,540.752,538.725,0.0
52849.0,STARLINK-4197,PAYLOAD,2024-01-14 05:34:13,15.08844755,0.0001689,53.2178,310.176,116.5213,243.5952,0.00012228,1.659e-05,0.0,0 STARLINK-4197,1 52849U 22062V   24014.23209534  .00001659  00000-0  12228-3 0  9998,2 52849  53.2178 310.1760 0001689 116.5213 243.5952 15.08844755 87830,6917.866,95.437,540.899,538.562,0.0
52849.0,STARLINK-4197,PAYLOAD,2024-01-14 23:03:27,15.08848311,0.0001815,53.2181,306.9018,124.1234,235.993,8.4221e-05,1.053e-05,0.0,0 STARLINK-4197,1 52849U 22062V   24014.96073399  .00001053  00000-0  84221-4 0  9997,2 52849  53.2181 306.9018 0001815 124.1234 235.9930 15.08848311 87453,6917.855,95.437,540.976,538.464,0.0
52849.0,STARLINK-4197,PAYLOAD,2024-01-15 02:14:13,15.08848267,0.000163,53.2179,306.3087,113.0692,247.0472,0.00029144,4.354e-05,0.0,0 STARLINK-4197,1 52849U 22062V   24015.09321522  .00004354  00000-0  29144-3 0  9995,2 52849  53.2179 306.3087 0001630 113.0692 247.0472 15.08848267 87477,6917.855,95.437,540.848,538.593,0.0
52849.0,STARLINK-4197,PAYLOAD,2024-01-16 03:40:24,15.08838434,0.0001505,53.2175,301.5508,100.8433,259.2729,-9.9922e-06,-4.47e-06,0.0,0 STARLINK-4197,1 52849U 22062V   24016.15306053 -.00000447  00000-0 -99922-5 0  9999,2 52849  53.2175 301.5508 0001505 100.8433 259.2729 15.08838434 88124,6917.885,95.438,540.791,538.709,0.0
52849.0,STARLINK-4197,PAYLOAD,2024-01-17 01:55:48,15.08842216,0.0001689,53.2179,297.3856,96.8794,263.2391,-2.8359e-05,-7.39e-06,0.0,0 STARLINK-4197,1 52849U 22062V   24017.08041900 -.00000739  00000-0 -28359-4 0  9998,2 52849  53.2179 297.3856 0001689  96.8794 263.2391 15.08842216 87776,6917.874,95.437,540.907,538.57,0.0
52849.0,STARLINK-4197,PAYLOAD,2024-01-17 22:35:49,15.08834947,0.0001525,53.2168,293.5273,65.7387,294.3765,8.3266e-05,1.037e-05,0.0,0 STARLINK-4197,1 52849U 22062V   24017.94154917  .00001037  00000-0  83266-4 0  9994,2 52849  53.2168 293.5273 0001525  65.7387 294.3765 15.08834947 87904,6917.896,95.438,540.816,538.706,0.0
52849.0,STARLINK-4197,PAYLOAD,2024-01-18 03:21:58,15.08840998,0.0001397,53.2181,292.6331,84.6844,275.4308,0.00012572,1.714e-05,0.0,0 STARLINK-4197,1 52849U 22062V   24018.14026519  .00001714  00000-0  12572-3 0  9996,2 52849  53.2181 292.6331 0001397  84.6844 275.4308 15.08840998 88423,6917.877,95.437,540.709,538.776,0.0
52849.0,STARLINK-4197,PAYLOAD,2024-01-18 22:26:36,15.08846395,0.0001419,53.2174,289.0665,77.5977,282.5174,1.5403e-05,-4.3e-07,0.0,0 STARLINK-4197,1 52849U 22062V   24018.93514733 -.00000043  00000-0  15403-4 0  9995,2 52849  53.2174 289.0665 0001419  77.5977 282.5174 15.08846395 88054,6917.861,95.437,540.707,538.744,0.0
52849.0,STARLINK-4197,PAYLOAD,2024-01-19 03:12:45,15.08851273,0.0001468,53.2176,288.1734,83.4519,276.6641,0.00015519,2.183e-05,0.0,0 STARLINK-4197,1 52849U 22062V   24019.13386028  .00002183  00000-0  15519-3 0  9995,2 52849  53.2176 288.1734 0001468  83.4519 276.6641 15.08851273 88082,6917.846,95.437,540.726,538.695,0.0
52849.0,STARLINK-4197,PAYLOAD,2024-01-19 22:17:24,15.08832294,0.0001445,53.2182,284.6016,119.2664,240.8473,-1.8903e-05,-5.89e-06,0.0,0 STARLINK-4197,1 52849U 22062V   24019.92875649 -.00000589  00000-0 -18903-4 0  9995,2 52849  53.2182 284.6016 0001445 119.2664 240.8473 15.08832294 88209,6917.904,95.438,540.769,538.769,0.0
52849.0,STARLINK-4197,PAYLOAD,2024-01-20 03:03:33,15.08841457,0.0001502,53.218,283.711,87.9925,272.1239,7.7246e-05,9.42e-06,0.0,0 STARLINK-4197,1 52849U 22062V   24020.12747155  .00000942  00000-0  77246-4 0  9995,2 52849  53.2180 283.7110 0001502  87.9925 272.1239 15.08841457 88723,6917.876,95.437,540.78,538.702,0.0
52849.0,STARLINK-4197,PAYLOAD,2024-01-20 22:08:11,15.08847068,0.0001614,53.2172,280.1426,79.0805,281.0369,0.00013172,1.809e-05,0.0,0 STARLINK-4197,1 52849U 22062V   24020.92235063  .00001809  00000-0  13172-3 0  9993,2 52849  53.2172 280.1426 0001614  79.0805 281.0369 15.08847068 88354,6917.859,95.437,540.84,538.607,0.0
52849.0,STARLINK-4197,PAYLOAD,2024-01-21 02:54:20,15.08853754,0.0001642,53.2175,279.2473,98.4945,261.6233,0.00022335,3.27e-05,0.0,0 STARLINK-4197,1 52849U 22062V   24021.12106614  .00003270  00000-0  22335-3 0  9990,2 52849  53.2175 279.2473 0001642  98.4945 261.6233 15.08853754 88879,6917.838,95.437,540.839,538.567,0.0
52849.0,STARLINK-4197,PAYLOAD,2024-01-21 21:58:57,15.08847245,0.0001797,53.2176,275.6754,119.2744,240.8428,0.00015354,2.157e-05,0.0,0 STARLINK-4197,1 52849U 22062V   24021.91594821  .00002157  00000-0  15354-3 0  9994,2 52849  53.2176 275.6754 0001797 119.2744 240.8428 15.08847245 88505,6917.858,95.437,540.966,538.48,0.0
52849.0,STARLINK-4197,PAYLOAD,2024-01-22 20:14:21,15.08842761,0.0001945,53.2163,271.5142,119.9789,240.1396,-4.8737e-05,-1.064e-05,0.0,0 STARLINK-4197,1 52849U 22062V   24022.84330887 -.00001064  00000-0 -48737-4 0  9997,2 52849  53.2163 271.5142 0001945 119.9789 240.1396 15.08842761 89133,6917.872,95.437,541.082,538.391,0.0
52849.0,STARLINK-4197,PAYLOAD,2024-01-22 21:49:44,15.08842678,0.0001551,53.2164,271.2215,110.066,250.0499,-6.4098e-05,-1.308e-05,0.0,0 STARLINK-4197,1 52849U 22062V   24022.90954811 -.00001308  00000-0 -64098-4 0  9992,2 52849  53.2164 271.2215 0001551 110.0660 250.0499 15.08842678 88652,6917.872,95.437,540.81,538.664,0.0
52849.0,STARLINK-4197,PAYLOAD,2024-01-22 23:25:08,15.08840547,0.0001421,53.2171,270.9255,96.6855,263.4299,-3.6522e-05,-8.69e-06,0.0,0 STARLINK-4197,1 52849U 22062V   24022.97579102 -.00000869  00000-0 -36522-4 0  9997,2 52849  53.2171 270.9255 0001421  96.6855 263.4299 15.08840547 88661,6917.879,95.438,540.727,538.761,0.0
52849.0,STARLINK-4197,PAYLOAD,2024-01-23 21:40:31,15.08846897,0.0001317,53.2159,266.7612,89.8609,270.2534,1.6974e-06,-2.61e-06,0.0,0 STARLINK-4197,1 52849U 22062V   24023.90314774 -.00000261  00000-0  16974-5 0  9998,2 52849  53.2159 266.7612 0001317  89.8609 270.2534 15.08846897 88800,6917.859,95.437,540.635,538.813,0.0
52849.0,STARLINK-4197,PAYLOAD,2024-01-23 23:15:55,15.08836048,0.000159,53.2165,266.468,105.147,254.9698,0.00040058,6.092e-05,0.0,0 STARLINK-4197,1 52849U 22062V   24023.96939330  .00006092  00000-0  40058-3 0  9990,2 52849  53.2165 266.4680 0001590 105.1470 254.9698 15.08836048 89303,6917.892,95.438,540.857,538.658,0.0
52849.0,STARLINK-4197,PAYLOAD,2024-01-24 21:31:19,15.08838747,0.0001467,53.2165,262.3031,103.3347,256.7809,8.1442e-05,1.008e-05,0.0,0 STARLINK-4197,1 52849U 22062V   24024.89675234  .00001008  00000-0  81442-4 0  9998,2 52849  53.2165 262.3031 0001467 103.3347 256.7809 15.08838747 88956,6917.884,95.438,540.764,538.734,0.0
52849.0,STARLINK-4197,PAYLOAD,2024-01-24 23:06:42,15.08834942,0.0001489,53.217,262.006,89.8337,270.2826,0.00025048,3.7e-05,0.0,0 STARLINK-4197,1 52849U 22062V   24024.96299519  .00003700  00000-0  25048-3 0  9994,2 52849  53.2170 262.0060 0001489  89.8337 270.2826 15.08834942 89451,6917.896,95.438,540.791,538.731,0.0
52849.0,STARLINK-4197,PAYLOAD,2024-01-25 22:57:31,15.08792573,0.000189,53.218,257.5428,76.5347,283.5856,0.00072275,0.00011218,0.0,0 STARLINK-4197,1 52849U 22062V   24025.95661124  .00011218  00000-0  72275-3 0  9996,2 52849  53.2180 257.5428 0001890  76.5347 283.5856 15.08792573 89115,6918.025,95.441,541.198,538.583,0.0
